NORAD_CAT_ID,OBJECT_NAME,OBJECT_TYPE,EPOCH,MEAN_MOTION,ECCENTRICITY,INCLINATION,RA_OF_ASC_NODE,ARG_OF_PERICENTER,MEAN_ANOMALY,BSTAR,MEAN_MOTION_DOT,MEAN_MOTION_DDOT,TLE_LINE0,TLE_LINE1,TLE_LINE2,SEMIMAJOR_AXIS,PERIOD,APOGEE,PERIGEE,DECAYED
53136.0,STARLINK-4152,PAYLOAD,2022-09-05 04:00:00,15.11909814,0.0001742,53.2175,167.1174,51.3665,131.8763,-0.070762,-0.01130292,0.0,0 STARLINK-4152,1 53136U 22083E   22248.16667824 -.01130292  00000-0 -70762-1 0  9994,2 53136  53.2175 167.1174 0001742  51.3665 131.8763 15.11909814  8376,6908.513000000001,95.244,531.582,529.175,0.0
53136.0,STARLINK-4152,PAYLOAD,2022-09-05 14:00:01,15.10900723,0.0001651,53.2175,165.2357,44.5687,247.0235,-0.07229,-0.01123181,0.0,0 STARLINK-4152,1 53136U 22083E   22248.58334491 -.01123181  00000-0 -72290-1 0  9998,2 53136  53.2175 165.2357 0001651  44.5687 247.0235 15.10900723  1304,6911.589,95.307,534.595,532.313,0.0
53136.0,STARLINK-4152,PAYLOAD,2022-09-05 20:00:01,15.10306352,0.0001793,53.2177,164.1068,44.3397,167.5336,-0.07435,-0.01135272,0.0,0 STARLINK-4152,1 53136U 22083E   22248.83334491 -.01135272  00000-0 -74350-1 0  9999,2 53136  53.2177 164.1068 0001793  44.3397 167.5336 15.10306352  8477,6913.401999999999,95.345,536.507,534.0269999999998,0.0
53136.0,STARLINK-4152,PAYLOAD,2022-09-05 22:00:00,15.10139359,0.0001367,53.2176,163.7334,57.8816,247.2742,-0.077036,-0.01167949,0.0,0 STARLINK-4152,1 53136U 22083E   22248.91667824 -.01167949  00000-0 -77036-1 0  9997,2 53136  53.2176 163.7334 0001367  57.8816 247.2742 15.10139359  1302,6913.9119999999975,95.355,536.722,534.831,0.0
53136.0,STARLINK-4152,PAYLOAD,2022-09-06 04:00:00,15.0936782,0.0001431,53.2175,162.6077,52.5823,172.176,-0.040622,-0.00616921,0.0,0 STARLINK-4152,1 53136U 22083E   22249.16667824 -.00616921  00000-0 -40622-1 0  9994,2 53136  53.2175 162.6077 0001431  52.5823 172.1760 15.09367820  8526,6916.268,95.404,539.122,537.143,0.0
53136.0,STARLINK-4152,PAYLOAD,2022-09-06 12:00:00,15.08836224,0.0001561,53.2175,161.1083,47.2107,189.5245,-3.6838e-05,-8.74e-06,0.0,0 STARLINK-4152,1 53136U 22083E   22249.50001157 -.00000874  00000-0 -36838-4 0  9994,2 53136  53.2175 161.1083 0001561  47.2107 189.5245 15.08836224  8570,6917.892,95.438,540.837,538.677,0.0
53136.0,STARLINK-4152,PAYLOAD,2022-09-06 14:00:01,15.08753869,0.0001838,53.2176,160.7437,58.0315,271.4575,0.0099637999999999,0.00161565,0.0,0 STARLINK-4152,1 53136U 22083E   22249.58334491  .00161565  00000-0  99638-2 0  9990,2 53136  53.2176 160.7437 0001838  58.0315 271.4575 15.08753869  1301,6918.144,95.443,541.28,538.737,0.0
53136.0,STARLINK-4152,PAYLOAD,2022-09-06 20:00:01,15.08874486,0.0001801,53.2178,159.6221,59.6647,188.4719,0.00018819,2.711e-05,0.0,0 STARLINK-4152,1 53136U 22083E   22249.83334491  .00002711  00000-0  18819-3 0  9998,2 53136  53.2178 159.6221 0001801  59.6647 188.4719 15.08874486  8624,6917.775,95.435,540.886,538.394,0.0
53136.0,STARLINK-4152,PAYLOAD,2022-09-06 22:00:00,15.08883693,0.0001841,53.2178,159.2485,56.3256,284.7176,-0.0012312999999999,-0.00019854,0.0,0 STARLINK-4152,1 53136U 22083E   22249.91667824 -.00019854  00000-0 -12313-2 0  9996,2 53136  53.2178 159.2485 0001841  56.3256 284.7176 15.08883693  1301,6917.746999999999,95.435,540.885,538.3380000000002,0.0
53136.0,STARLINK-4152,PAYLOAD,2022-09-07 14:00:01,15.08838067,0.0001692,53.2174,156.2549,57.6101,306.713,0.0017117999999999,0.00027059,0.0,0 STARLINK-4152,1 53136U 22083E   22250.58334491  .00027059  00000-0  17118-2 0  9994,2 53136  53.2174 156.2549 0001692  57.6101 306.7130 15.08838067  8747,6917.886,95.438,540.922,538.581,0.0
53136.0,STARLINK-4152,PAYLOAD,2022-09-07 22:00:00,15.0885633,0.0001872,53.2176,154.7597,58.172,317.7572,-0.0027632,-0.00044016,0.0,0 STARLINK-4152,1 53136U 22083E   22250.91667824 -.00044016  00000-0 -27632-2 0  9996,2 53136  53.2176 154.7597 0001872  58.1720 317.7572 15.08856330  1308,6917.83,95.437,540.99,538.4,0.0
53136.0,STARLINK-4152,PAYLOAD,2022-09-08 04:00:00,15.08813142,0.0001995,53.2174,153.6384,54.8435,239.7904,0.0034423,0.00054883,0.0,0 STARLINK-4152,1 53136U 22083E   22251.16667824  .00054883  00000-0  34423-2 0  9991,2 53136  53.2174 153.6384 0001995  54.8435 239.7904 15.08813142  8820,6917.962,95.439,541.2080000000002,538.447,0.0
53136.0,STARLINK-4152,PAYLOAD,2022-09-08 14:00:01,15.08818123,0.0001843,53.2172,151.7661,61.3746,337.7482,0.0033406,0.00053248,0.0,0 STARLINK-4152,1 53136U 22083E   22251.58334491  .00053248  00000-0  33406-2 0  9992,2 53136  53.2172 151.7661 0001843  61.3746 337.7482 15.08818123  1305,6917.946999999999,95.439,541.087,538.5369999999998,0.0
53136.0,STARLINK-4152,PAYLOAD,2022-09-08 22:00:00,15.08871121,0.0001965,53.2173,150.27100000000004,59.0769,351.6409,-0.0013896,-0.00022355,0.0,0 STARLINK-4152,1 53136U 22083E   22251.91667824 -.00022355  00000-0 -13896-2 0  9996,2 53136  53.2173 150.2710 0001965  59.0769 351.6409 15.08871121  1300,6917.785,95.436,541.01,538.2909999999998,0.0
53136.0,STARLINK-4152,PAYLOAD,2022-09-09 14:00:01,15.08831516,0.0001769,53.2172,147.27700000000004,59.6752,14.2883,0.0027102,0.00043099,0.0,0 STARLINK-4152,1 53136U 22083E   22252.58334491  .00043099  00000-0  27102-2 0  9992,2 53136  53.2172 147.2770 0001769  59.6752  14.2883 15.08831516  1303,6917.906,95.438,540.995,538.548,0.0
53136.0,STARLINK-4152,PAYLOAD,2022-09-09 20:00:01,15.08878424,0.0001821,53.2174,146.1556,59.1544,293.5043,-0.0036080999999999,-0.00057315,0.0,0 STARLINK-4152,1 53136U 22083E   22252.83334491 -.00057315  00000-0 -36081-2 0  9994,2 53136  53.2174 146.1556 0001821  59.1544 293.5043 15.08878424  9079,6917.763000000001,95.435,540.888,538.368,0.0
53136.0,STARLINK-4152,PAYLOAD,2022-09-09 22:00:00,15.08860364,0.0001855999999999,53.2172,145.782,57.0205,28.5491,-0.0022817,-0.00036439,0.0,0 STARLINK-4152,1 53136U 22083E   22252.91667824 -.00036439  00000-0 -22817-2 0  9998,2 53136  53.2172 145.7820 0001856  57.0205  28.5491 15.08860364  1300,6917.818,95.436,540.967,538.399,0.0
53136.0,STARLINK-4152,PAYLOAD,2022-09-10 12:00:00,15.08811577,0.0001702,53.2174,143.1623,55.7534,320.1167,0.0015572,0.00024562,0.0,0 STARLINK-4152,1 53136U 22083E   22253.50001157  .00024562  00000-0  15572-2 0  9997,2 53136  53.2174 143.1623 0001702  55.7534 320.1167 15.08811577  9182,6917.967,95.439,541.01,538.655,0.0
53136.0,STARLINK-4152,PAYLOAD,2022-09-10 14:00:01,15.08801319,0.0001683,53.2172,142.7879,56.302,52.4646,0.0032871,0.0005236,0.0,0 STARLINK-4152,1 53136U 22083E   22253.58334491  .00052360  00000-0  32871-2 0  9993,2 53136  53.2172 142.7879 0001683  56.3020  52.4646 15.08801319  1309,6917.999,95.44,541.028,538.6990000000002,0.0
53136.0,STARLINK-4152,PAYLOAD,2022-09-10 22:00:00,15.08846843,0.0001836,53.2173,141.293,53.7002,66.6413,-0.00080906,-0.00013144,0.0,0 STARLINK-4152,1 53136U 22083E   22253.91667824 -.00013144  00000-0 -80906-3 0  9991,2 53136  53.2173 141.2930 0001836  53.7002  66.6413 15.08846843  1303,6917.859,95.437,540.995,538.4540000000002,0.0
53136.0,STARLINK-4152,PAYLOAD,2022-09-11 14:00:01,15.08834638,0.0001691,53.2173,138.29399999999998,54.4815,89.0603,-0.00048065,-7.928e-05,0.0,0 STARLINK-4152,1 53136U 22083E   22254.58334491 -.00007928  00000-0 -48065-3 0  9999,2 53136  53.2173 138.2940 0001691  54.4815  89.0603 15.08834638  9340,6917.897,95.438,540.932,538.592,0.0
53136.0,STARLINK-4152,PAYLOAD,2022-09-11 22:00:00,15.08858146,0.0001801,53.2173,136.8039,51.4458,103.6848,-0.0015627,-0.00025085,0.0,0 STARLINK-4152,1 53136U 22083E   22254.91667824 -.00025085  00000-0 -15627-2 0  9996,2 53136  53.2173 136.8039 0001801  51.4458 103.6848 15.08858146  1308,6917.825,95.436,540.936,538.444,0.0
53136.0,STARLINK-4152,PAYLOAD,2022-09-12 04:00:00,15.08845879,0.0001823,53.2172,135.68200000000002,47.1354,26.7015,-0.0010765,-0.00017383,0.0,0 STARLINK-4152,1 53136U 22083E   22255.16667824 -.00017383  00000-0 -10765-2 0  9994,2 53136  53.2172 135.6820 0001823  47.1354  26.7015 15.08845879  9435,6917.861999999999,95.437,540.989,538.466,0.0
53136.0,STARLINK-4152,PAYLOAD,2022-09-12 14:00:01,15.08798269,0.0001686999999999,53.2173,133.8095,56.5671,121.7725,0.0031831999999999,0.00050679,0.0,0 STARLINK-4152,1 53136U 22083E   22255.58334491  .00050679  00000-0  31832-2 0  9992,2 53136  53.2173 133.8095 0001687  56.5671 121.7725 15.08798269  1306,6918.0080000000025,95.44,541.04,538.706,0.0
53136.0,STARLINK-4152,PAYLOAD,2022-09-12 22:00:00,15.08831102,0.0001843,53.2172,132.3147,52.1386,137.7654,-0.00016675,-2.94e-05,0.0,0 STARLINK-4152,1 53136U 22083E   22255.91667824 -.00002940  00000-0 -16675-3 0  9997,2 53136  53.2172 132.3147 0001843  52.1386 137.7654 15.08831102  1308,6917.908,95.438,541.048,538.498,0.0
53136.0,STARLINK-4152,PAYLOAD,2022-09-13 06:00:00,15.08860534,0.0001793,53.217,130.8181,50.3731,151.1076,-0.0026796,-0.00042706,0.0,0 STARLINK-4152,1 53136U 22083E   22256.25001157 -.00042706  00000-0 -26796-2 0  9994,2 53136  53.2170 130.8181 0001793  50.3731 151.1076 15.08860534  9593,6917.818,95.436,540.923,538.442,0.0
53136.0,STARLINK-4152,PAYLOAD,2022-09-13 14:00:01,15.08810386,0.0001588999999999,53.2171,129.3203,56.1075,156.981,0.002657,0.00042217,0.0,0 STARLINK-4152,1 53136U 22083E   22256.58334491  .00042217  00000-0  26570-2 0  9995,2 53136  53.2171 129.3203 0001589  56.1075 156.9810 15.08810386  1300,6917.971,95.439,540.935,538.737,0.0
53136.0,STARLINK-4152,PAYLOAD,2022-09-13 20:00:01,15.08845813,0.000166,53.2173,128.1957,54.4733,77.2956,-0.0010021,-0.00016204,0.0,0 STARLINK-4152,1 53136U 22083E   22256.83334491 -.00016204  00000-0 -10021-2 0  9996,2 53136  53.2173 128.1957 0001660  54.4733  77.2956 15.08845813  9685,6917.863,95.437,540.876,538.5790000000002,0.0
53136.0,STARLINK-4152,PAYLOAD,2022-09-13 22:00:00,15.0883301,0.0001744,53.217,127.8257,51.3315,173.3298,-8.0787e-05,-1.573e-05,0.0,0 STARLINK-4152,1 53136U 22083E   22256.91667824 -.00001573  00000-0 -80787-4 0  9995,2 53136  53.2170 127.8257 0001744  51.3315 173.3298 15.08833010  1300,6917.901999999999,95.438,540.9730000000002,538.56,0.0
